 Automated mail xmit by MAIL_REQUEST, PID= 432 Mon Jul 31 11:18:14 2017
++++++++++++++++++++++++++++++++ (part 1 of 1)  +++++++++++++++++++++++++++++++

*******************************************************************************
 Revised: Nov 05, 2015             134340 Pluto                             999
 
 Fit to all available observations (PLU043/DE433) including New Horizons
 encounter tracking.

 ICRF/J2000.0 helio. ecliptic osc. elements (AU, DAYS, DEG, period=Julian yrs):

 EPOCH= 2457217.5 ! 2015-Jul-14 00:00:00.0000 (TDB)
  EC= 2.543193766760227E-01 QR= 2.963711277830007E+01 IN= 1.736672922693450E+01
  OM= 1.102097591127033E+02 W = 1.142276233642205E+02 Tp=  2447886.048708124086
  N = 3.933503338914713E-03 MA= 3.670529481351401E+01 TA= 5.935219029576444E+01
  A = 3.974504882021532E+01 AD= 4.985298486213057E+01 PR= 9.152146801007345E+04

 NOTE:
  The Horizons output log may report using DE431 as the source of target or
  center data, but it is nevertheless using DE433 as an override if Pluto is 
  involved. This is to maintain ephemeris consistency for the New Horizons 
  spacecraft encounter at Pluto.

 PHYSICAL DATA (updated 2013-Nov-19, Mc= Charon mass, radius is IAU 2009):
  Mass Pluto (10^22 kg) = 1.307+-0.018    Density Pluto:
  GM (planet) km^3/s^2  = 872.4             (R = 1195 km)       = 1.83 g/cm^3
  Mass ratio (Mc/Mp)    = 0.117           Radius of Pluto, Rp   = 1195 km
  Surface gravity       = 61.1 cm/s^2     Geometric albedo      = 0.3 
  Sidereal orbit period = 249.58932 yr    Mean orbit velocity   = 4.656 km/s
  Escape velocity (km/s)= 1.21
*******************************************************************************
 
 
*******************************************************************************
Ephemeris / MAIL_REQUEST Mon Jul 31 11:18:14 2017 Pasadena, USA  / Horizons    
*******************************************************************************
Target body name: Pluto (999)                     {source: plu055l_merged}
Center body name: Solar System Barycenter (0)     {source: DE431mx}
Center-site name: BODY CENTER
*******************************************************************************
Start time      : A.D. 2017-Jul-10 00:00:00.0000 TDB
Stop  time      : A.D. 2020-Aug-13 00:00:00.0000 TDB
Step-size       : 1440 minutes
*******************************************************************************
Center geodetic : 0.00000000,0.00000000,0.0000000 {E-lon(deg),Lat(deg),Alt(km)}
Center cylindric: 0.00000000,0.00000000,0.0000000 {E-lon(deg),Dxy(km),Dz(km)}
Center radii    : (undefined)                                                  
Output units    : KM-S                                                         
Output type     : GEOMETRIC cartesian states
Output format   : 3 (position, velocity, LT, range, range-rate)
Reference frame : ICRF/J2000.0                                                 
Coordinate systm: Ecliptic and Mean Equinox of Reference Epoch                 
*******************************************************************************
            JDTDB,            Calendar Date (TDB),                      X,                      Y,                      Z,                     VX,                     VY,                     VZ,                     LT,                     RG,                     RR,
**************************************************************************************************************************************************************************************************************************************************************************
$$SOE
2458128.500000000, A.D. 2018-Jan-10 00:00:00.0000,  1.616494430619433E+09, -4.739744577568323E+09,  3.959665228298426E+07,  5.267206469835176E+00,  6.331099231316724E-01, -1.571552849255218E+00,  1.670480223336450E+04,  5.007973721944234E+09,  1.088544523035254E+00,
2458129.500000000, A.D. 2018-Jan-11 00:00:00.0000,  1.616950078854534E+09, -4.739689753948998E+09,  3.946004698473811E+07,  5.278076415949270E+00,  6.329656359543925E-01, -1.591685773527074E+00,  1.670511621952105E+04,  5.008067852625885E+09,  1.092540577172368E+00,
2458130.500000000, A.D. 2018-Jan-12 00:00:00.0000,  1.617406019412362E+09, -4.739635637765644E+09,  3.932171584400773E+07,  5.273396192308087E+00,  6.181492755659397E-01, -1.608229161591182E+00,  1.670543285542124E+04,  5.008162777680694E+09,  1.105431736928024E+00,
2458131.500000000, A.D. 2018-Jan-13 00:00:00.0000,  1.617860979450679E+09, -4.739582969496017E+09,  3.918269067683458E+07,  5.257215123250472E+00,  6.022658755721599E-01, -1.606436907820768E+00,  1.670575313443044E+04,  5.008258794912107E+09,  1.115758955336012E+00,
2458132.500000000, A.D. 2018-Jan-14 00:00:00.0000,  1.618314549361191E+09, -4.739531165019299E+09,  3.904462155785275E+07,  5.243829181959454E+00,  5.998636337192178E-01, -1.587911037185251E+00,  1.670607481307565E+04,  5.008355231743841E+09,  1.114356516060887E+00,
2458133.500000000, A.D. 2018-Jan-15 00:00:00.0000,  1.618767547798370E+09, -4.739478836365493E+09,  3.890830600849938E+07,  5.245048318247742E+00,  6.134780594799956E-01, -1.569172521550926E+00,  1.670639441178869E+04,  5.008451045027595E+09,  1.102515294737156E+00,
2458134.500000000, A.D. 2018-Jan-16 00:00:00.0000,  1.619221292341752E+09, -4.739425029171671E+09,  3.877297701811743E+07,  5.259660536601383E+00,  6.313534890765968E-01, -1.566948992317010E+00,  1.670671031843991E+04,  5.008545751459063E+09,  1.090844887283068E+00,
2458135.500000000, A.D. 2018-Jan-17 00:00:00.0000,  1.619676423658602E+09, -4.739370075069273E+09,  3.863698643157554E+07,  5.274491975554309E+00,  6.379204103821446E-01, -1.583231040790287E+00,  1.670702422919704E+04,  5.008639859536534E+09,  1.089808465607023E+00,
2458136.500000000, A.D. 2018-Jan-18 00:00:00.0000,  1.620132333238912E+09, -4.739315295865760E+09,  3.849927648541665E+07,  5.276175979957451E+00,  6.277098118513369E-01, -1.603485742528522E+00,  1.670733963397735E+04,  5.008734415510890E+09,  1.100368893648220E+00,
2458137.500000000, A.D. 2018-Jan-19 00:00:00.0000,  1.620587707194501E+09, -4.739261823325582E+09,  3.836032344580078E+07,  5.263086394321602E+00,  6.102236200044522E-01, -1.609650562923710E+00,  1.670765870001831E+04,  5.008830069103574E+09,  1.113141554696616E+00,
2458138.500000000, A.D. 2018-Jan-20 00:00:00.0000,  1.621041698399690E+09, -4.739209590227585E+09,  3.822171156596565E+07,  5.246765441192646E+00,  6.014401090234500E-01, -1.596235900938561E+00,  1.670798034051499E+04,  5.008926494498667E+09,  1.116779007879458E+00,
2458139.500000000, A.D. 2018-Jan-21 00:00:00.0000,  1.621494681313757E+09, -4.739157390768965E+09,  3.808472064122987E+07,  5.241635704041755E+00,  6.095814626152968E-01, -1.575202794274725E+00,  1.670830118520762E+04,  5.009022681317706E+09,  1.108078584668256E+00,
2458140.500000000, A.D. 2018-Jan-22 00:00:00.0000,  1.621947918637740E+09, -4.739103955231227E+09,  3.794918471472144E+07,  5.252149127875532E+00,  6.277790144128923E-01, -1.565318896091479E+00,  1.670861858538081E+04,  5.009117835495794E+09,  1.094843431577889E+00,
2458141.500000000, A.D. 2018-Jan-23 00:00:00.0000,  1.622402435181675E+09, -4.739049083125896E+09,  3.781363887607098E+07,  5.268794018610249E+00,  6.401783997193572E-01, -1.575414391699188E+00,  1.670893297878582E+04,  5.009212088267464E+09,  1.088932778455309E+00,
2458142.500000000, A.D. 2018-Jan-24 00:00:00.0000,  1.622858102599216E+09, -4.738993822822252E+09,  3.767662667032290E+07,  5.276581324537192E+00,  6.361005948239936E-01, -1.596478334142025E+00,  1.670924749995552E+04,  5.009306379342019E+09,  1.095663877026148E+00,
2458143.500000000, A.D. 2018-Jan-25 00:00:00.0000,  1.623313754298263E+09, -4.738939535290171E+09,  3.753800029577518E+07,  5.268437597973466E+00,  6.195785109931207E-01, -1.609718545701979E+00,  1.670956518028368E+04,  5.009401617508457E+09,  1.109065897377484E+00,
2458144.500000000, A.D. 2018-Jan-26 00:00:00.0000,  1.623768226872794E+09, -4.738886679936634E+09,  3.739905127956963E+07,  5.251498701862497E+00,  6.057347865998984E-01, -1.603336513668978E+00,  1.670988624383129E+04,  5.009497869938572E+09,  1.117226737004490E+00,
2458145.500000000, A.D. 2018-Jan-27 00:00:00.0000,  1.624221397062133E+09, -4.738834405749865E+09,  3.726135832943177E+07,  5.240735740065221E+00,  6.072997130851869E-01, -1.583024456234247E+00,  1.671020790988935E+04,  5.009594302996771E+09,  1.112911819136520E+00,
2458146.500000000, A.D. 2018-Jan-28 00:00:00.0000,  1.624674291755903E+09, -4.738781309753654E+09,  3.712538006695676E+07,  5.245621870377964E+00,  6.232714480710024E-01, -1.566899478113502E+00,  1.671052687227766E+04,  5.009689925515173E+09,  1.100009831214306E+00,
2458147.500000000, A.D. 2018-Jan-29 00:00:00.0000,  1.625128172786665E+09, -4.738726688240798E+09,  3.699004493568635E+07,  5.261671219991102E+00,  6.397871158063746E-01, -1.569360020024005E+00,  1.671084224918706E+04,  5.009784473134036E+09,  1.090079460844898E+00,
2458148.500000000, A.D. 2018-Jan-30 00:00:00.0000,  1.625583410458856E+09, -4.738671165646825E+09,  3.685370675682783E+07,  5.274425484075374E+00,  6.424905811082975E-01, -1.588213305461210E+00,  1.671115637224243E+04,  5.009878644856919E+09,  1.092029531275458E+00,
2458149.500000000, A.D. 2018-Jan-31 00:00:00.0000,  1.626039152857623E+09, -4.738616137046785E+09,  3.671561459469914E+07,  5.272374349167891E+00,  6.293623905187367E-01, -1.606633564355428E+00,  1.671147270388765E+04,  5.009973478698386E+09,  1.104155905272415E+00,
2458150.500000000, A.D. 2018-Feb-01 00:00:00.0000,  1.626494086868375E+09, -4.738562522833301E+09,  3.657658212071586E+07,  5.257222610472359E+00,  6.125036699756734E-01, -1.608198450393836E+00,  1.671179274645293E+04,  5.010069425045697E+09,  1.115679579809657E+00,
